UNKNOWN                 
1 82524U          26003.66208925  .00014739  00000+0  46580-2 0  9998
2 82524  73.2830 139.6999 0135707 266.9001 104.0700 14.35057989580184
UNKNOWN                 
1 82529U          25364.00461961  .00000580  00000+0  95118-3 0  9992
2 82529  99.7894  86.8562 0239354 198.4776 339.9026 13.41124446592050
UNKNOWN                 
1 82560U          25362.62853270  .00001664  00000+0  13735-2 0  9999
2 82560  99.9907 306.3587 0010358 271.2339 268.1289 13.90689818614079
UNKNOWN                 
1 82597U          25357.08975112  .00001933  00000+0  66057-3 0  9998
2 82597  66.7703 120.7388 0098191 299.9298  59.2079 14.35768617630466
UNKNOWN                 
1 82617U          25360.32971742  .00000567  00000+0  15414-3 0  9990
2 82617  74.0257 218.1300 0038240 159.9483 200.3190 14.49415290638799
UNKNOWN                 
1 82627U          26003.36537215  .00000963  00000+0  24952-2 0  9999
2 82627  82.4753 233.2110 0012977  32.2817  92.2920 13.16337211581676
UNKNOWN                 
1 82642U          25364.56294841  .00001593  00000+0  89851-3 0  9992
2 82642  98.9750 274.9863 0134526 187.0061 172.9230 14.07270644618649
UNKNOWN                 
1 82683U          26002.96777455  .00002001  00000+0  76794-3 0  9995
2 82683  98.1715  75.3242 0209669 334.0208  25.0562 14.20184832465283
UNKNOWN                 
1 82693U          25361.17191390  .00003241  00000+0  37457-2 0  9993
2 82693 100.5299 326.0100 0045461 347.9533  12.0519 13.69589402555732
UNKNOWN                 
1 82698U          26002.93891920  .00004150  00000+0  24446-2 0  9995
2 82698  61.6135  93.7056 0685280 297.5024  55.7936 13.29530012541196
UNKNOWN                 
1 82708U          25359.04269291  .00000918  00000+0  36526-2 0  9993
2 82708 102.1623 203.3844 0063016 263.8404  95.5505 12.90592150525105
UNKNOWN                 
1 82729U          25360.62051900  .00000431  00000+0  15690-2 0  9997
2 82729  67.9646 121.8956 0832302   1.3678 358.9333 12.17757215536896
